{
  "type": "FeatureCollection",
  "features": [
    {
      "type": "Feature",
      "properties": {
        "norad_id": 66871,
        "name": "STARLINK-36095",
        "group": "last-30-days",
        "lat": 23.05486734880562,
        "lon": -171.55180893420987,
        "alt_km": 411.4455382366805,
        "timestamp": "2025-12-27T02:10:14.908530+00:00",
        "meta_object_name": "STARLINK-36095",
        "meta_object_id": "2025-281Z",
        "meta_epoch": "2025-12-26T20:00:01.999008",
        "meta_mean_motion": 15.50569119,
        "meta_eccentricity": 9.8e-05,
        "meta_inclination": 43.0004,
        "meta_ra_of_asc_node": 37.1284,
        "meta_arg_of_pericenter": 240.9341,
        "meta_mean_anomaly": 267.1106,
        "meta_ephemeris_type": 0,
        "meta_classification_type": "U",
        "meta_norad_cat_id": 66871,
        "meta_element_set_no": 999,
        "meta_rev_at_epoch": 368,
        "meta_bstar": 0.00063745,
        "meta_mean_motion_dot": 0.00037219,
        "meta_mean_motion_ddot": 0,
        "tle_line1": "1 66871U 25281Z   25360.83335647  .00037219  00000+0  63745-3 0  9990",
        "tle_line2": "2 66871  43.0004  37.1284 0000980 240.9341 267.1106 15.50569119  3688"
      },
      "geometry": {
        "type": "Point",
        "coordinates": [
          -171.55180893420987,
          23.05486734880562
        ]
      }
    },
    {
      "type": "Feature",
      "properties": {
        "norad_id": 66872,
        "name": "STARLINK-36082",
        "group": "last-30-days",
        "lat": 21.88711643381959,
        "lon": -169.9186893398607,
        "alt_km": 411.71631069641444,
        "timestamp": "2025-12-27T02:10:14.908541+00:00",
        "meta_object_name": "STARLINK-36082",
        "meta_object_id": "2025-281AA",
        "meta_epoch": "2025-12-26T20:00:01.999008",
        "meta_mean_motion": 15.50570842,
        "meta_eccentricity": 0.0001258,
        "meta_inclination": 43.0005,
        "meta_ra_of_asc_node": 37.1235,
        "meta_arg_of_pericenter": 247.1509,
        "meta_mean_anomaly": 262.8051,
        "meta_ephemeris_type": 0,
        "meta_classification_type": "U",
        "meta_norad_cat_id": 66872,
        "meta_element_set_no": 999,
        "meta_rev_at_epoch": 355,
        "meta_bstar": 0.00064449,
        "meta_mean_motion_dot": 0.00037638,
        "meta_mean_motion_ddot": 0,
        "tle_line1": "1 66872U 25281AA  25360.83335647  .00037638  00000+0  64449-3 0  9998",
        "tle_line2": "2 66872  43.0005  37.1235 0001258 247.1509 262.8051 15.50570842  3552"
      },
      "geometry": {
        "type": "Point",
        "coordinates": [
          -169.9186893398607,
          21.88711643381959
        ]
      }
    },
    {
      "type": "Feature",
      "properties": {
        "norad_id": 66873,
        "name": "STARLINK-36128",
        "group": "last-30-days",
        "lat": 18.279009134478915,
        "lon": -165.15623094902898,
        "alt_km": 412.09104946298703,
        "timestamp": "2025-12-27T02:10:14.908550+00:00",
        "meta_object_name": "STARLINK-36128",
        "meta_object_id": "2025-281AB",
        "meta_epoch": "2025-12-26T20:00:01.999008",
        "meta_mean_motion": 15.50572341,
        "meta_eccentricity": 0.0001209,
        "meta_inclination": 43.0005,
        "meta_ra_of_asc_node": 37.1085,
        "meta_arg_of_pericenter": 239.9445,
        "meta_mean_anomaly": 275.7614,
        "meta_ephemeris_type": 0,
        "meta_classification_type": "U",
        "meta_norad_cat_id": 66873,
        "meta_element_set_no": 999,
        "meta_rev_at_epoch": 368,
        "meta_bstar": 0.0006863,
        "meta_mean_motion_dot": 0.00040117,
        "meta_mean_motion_ddot": 0,
        "tle_line1": "1 66873U 25281AB  25360.83335647  .00040117  00000+0  68630-3 0  9991",
        "tle_line2": "2 66873  43.0005  37.1085 0001209 239.9445 275.7614 15.50572341  3688"
      },
      "geometry": {
        "type": "Point",
        "coordinates": [
          -165.15623094902898,
          18.279009134478915
        ]
      }
    },
    {
      "type": "Feature",
      "properties": {
        "norad_id": 66874,
        "name": "STARLINK-36129",
        "group": "last-30-days",
        "lat": 20.69574872353822,
        "lon": -168.30237183449546,
        "alt_km": 411.81121911729315,
        "timestamp": "2025-12-27T02:10:14.908560+00:00",
        "meta_object_name": "STARLINK-36129",
        "meta_object_id": "2025-281AC",
        "meta_epoch": "2025-12-26T20:00:01.999008",
        "meta_mean_motion": 15.50578493,
        "meta_eccentricity": 0.0001166,
        "meta_inclination": 43.0006,
        "meta_ra_of_asc_node": 37.1183,
        "meta_arg_of_pericenter": 244.8044,
        "meta_mean_anomaly": 267.0657,
        "meta_ephemeris_type": 0,
        "meta_classification_type": "U",
        "meta_norad_cat_id": 66874,
        "meta_element_set_no": 999,
        "meta_rev_at_epoch": 368,
        "meta_bstar": 0.00066916,
        "meta_mean_motion_dot": 0.0003911,
        "meta_mean_motion_ddot": 0,
        "tle_line1": "1 66874U 25281AC  25360.83335647  .00039110  00000+0  66916-3 0  9998",
        "tle_line2": "2 66874  43.0006  37.1183 0001166 244.8044 267.0657 15.50578493  3686"
      },
      "geometry": {
        "type": "Point",
        "coordinates": [
          -168.30237183449546,
          20.69574872353822
        ]
      }
    },
    {
      "type": "Feature",
      "properties": {
        "norad_id": 66875,
        "name": "STARLINK-36053",
        "group": "last-30-days",
        "lat": 17.0542519996401,
        "lon": -163.6215293871646,
        "alt_km": 412.2723097953585,
        "timestamp": "2025-12-27T02:10:14.908570+00:00",
        "meta_object_name": "STARLINK-36053",
        "meta_object_id": "2025-281AD",
        "meta_epoch": "2025-12-26T20:00:01.999008",
        "meta_mean_motion": 15.50569774,
        "meta_eccentricity": 0.0001215,
        "meta_inclination": 43.0004,
        "meta_ra_of_asc_node": 37.1027,
        "meta_arg_of_pericenter": 240.4819,
        "meta_mean_anomaly": 277.1369,
        "meta_ephemeris_type": 0,
        "meta_classification_type": "U",
        "meta_norad_cat_id": 66875,
        "meta_element_set_no": 999,
        "meta_rev_at_epoch": 368,
        "meta_bstar": 0.00067181,
        "meta_mean_motion_dot": 0.00039255,
        "meta_mean_motion_ddot": 0,
        "tle_line1": "1 66875U 25281AD  25360.83335647  .00039255  00000+0  67181-3 0  9994",
        "tle_line2": "2 66875  43.0004  37.1027 0001215 240.4819 277.1369 15.50569774  3683"
      },
      "geometry": {
        "type": "Point",
        "coordinates": [
          -163.6215293871646,
          17.0542519996401
        ]
      }
    },
    {
      "type": "Feature",
      "properties": {
        "norad_id": 66876,
        "name": "STARLINK-35702",
        "group": "last-30-days",
        "lat": 19.49638478749372,
        "lon": -166.72011164301367,
        "alt_km": 411.9929715459084,
        "timestamp": "2025-12-27T02:10:14.908580+00:00",
        "meta_object_name": "STARLINK-35702",
        "meta_object_id": "2025-281AE",
        "meta_epoch": "2025-12-26T20:00:01.999008",
        "meta_mean_motion": 15.50574721,
        "meta_eccentricity": 0.0001131,
        "meta_inclination": 43.0006,
        "meta_ra_of_asc_node": 37.1136,
        "meta_arg_of_pericenter": 245.3392,
        "meta_mean_anomaly": 268.4457,
        "meta_ephemeris_type": 0,
        "meta_classification_type": "U",
        "meta_norad_cat_id": 66876,
        "meta_element_set_no": 999,
        "meta_rev_at_epoch": 368,
        "meta_bstar": 0.00065179,
        "meta_mean_motion_dot": 0.00038076,
        "meta_mean_motion_ddot": 0,
        "tle_line1": "1 66876U 25281AE  25360.83335647  .00038076  00000+0  65179-3 0  9990",
        "tle_line2": "2 66876  43.0006  37.1136 0001131 245.3392 268.4457 15.50574721  3683"
      },
      "geometry": {
        "type": "Point",
        "coordinates": [
          -166.72011164301367,
          19.49638478749372
        ]
      }
    },
    {
      "type": "Feature",
      "properties": {
        "norad_id": 66877,
        "name": "ZQ-3 R/B",
        "group": "last-30-days",
        "lat": 5.245602640552908,
        "lon": 178.08836255552657,
        "alt_km": 431.8088125847271,
        "timestamp": "2025-12-27T02:10:14.908592+00:00",
        "meta_object_name": "ZQ-3 R/B",
        "meta_object_id": "2025-282A",
        "meta_epoch": "2025-12-26T17:16:15.910176",
        "meta_mean_motion": 14.88008524,
        "meta_eccentricity": 0.0661331,
        "meta_inclination": 56.9484,
        "meta_ra_of_asc_node": 2.9971,
        "meta_arg_of_pericenter": 244.7229,
        "meta_mean_anomaly": 108.3888,
        "meta_ephemeris_type": 0,
        "meta_classification_type": "U",
        "meta_norad_cat_id": 66877,
        "meta_element_set_no": 999,
        "meta_rev_at_epoch": 345,
        "meta_bstar": 0.00016027,
        "meta_mean_motion_dot": 0.00975006,
        "meta_mean_motion_ddot": 7.9917e-06,
        "tle_line1": "1 66877U 25282A   25360.71962859  .00975006  79917-5  16027-3 0  9990",
        "tle_line2": "2 66877  56.9484   2.9971 0661331 244.7229 108.3888 14.88008524  3458"
      },
      "geometry": {
        "type": "Point",
        "coordinates": [
          178.08836255552657,
          5.245602640552908
        ]
      }
    }
  ]
}